format  = 'OEF2.0'       ! file format
rectype = 'ML'           ! record type (1L/ML)
refsys  = ECLM J2000     ! default reference system
END_OF_HEADER
1272
! Equinoctial elements: a, e*sin(LP), e*cos(LP), tan(i/2)*sin(LN), tan(i/2)*cos(LN), mean long.
 EQU   2.7881281506172479E+00  -0.083765488258720   0.125423143841049   -0.046067134093151    0.057451855196252  96.5199718002004
 MJD     61000.000000000 TDT
 MAG  13.021  0.150
! Non-grav parameters: model used, actual number in use, dimension
 LSP   0  0    6
! RMS    8.45279E-09   3.07239E-08   3.41628E-08   2.85711E-08   3.19298E-08   4.30901E-06
! EIG   4.89297E-09   2.73010E-08   2.76018E-08   3.29322E-08   3.42351E-08   7.67243E-08
! WEA   0.08650  -0.16289   0.10284  -0.02566  -0.01279  -0.97703
 COV   7.144968678828040E-17 -3.795597221770343E-17  1.578854548636831E-17
 COV  -3.083558119148839E-18 -2.026979640113126E-18 -2.903573411132553E-14
 COV   9.439607366803758E-16 -2.141178362169036E-16  1.307632560829663E-17
 COV   8.993262749246757E-18  4.570378074551585E-14  1.167099156331847E-15
 COV   8.777451409365192E-18 -3.510031771192593E-18 -2.634801860855240E-14
 COV   8.163105410952774E-16 -1.328399017795561E-16  7.641449711268669E-15
 COV   1.019511991022902E-15  3.733419034933000E-15  1.856753634398984E-11
 NOR   4.129986725328051E+16 -1.536334589211293E+15  7.354192663665064E+14
 NOR  -5.159152679262029E+14 -2.241446757810215E+14  6.966698471683100E+13
 NOR   1.289090965734205E+15  1.353269999179757E+14  2.404982674685021E+13
 NOR   8.930984382751135E+12 -5.395247488846677E+12  9.201524735156440E+14
 NOR  -3.065204376555322E+13 -8.383022887086729E+12  2.136966363946427E+12
 NOR   1.264179691691274E+15  1.687360278297296E+14 -1.463678029565327E+12
 NOR   1.004695761670245E+15 -6.558543325302751E+11  1.798490236742358E+11
